[{"OBJECT_NAME":"STARLINK-35881","OBJECT_ID":"2025-280K","EPOCH":"2026-03-09T23:15:17.063136","MEAN_MOTION":14.9839933,"ECCENTRICITY":0.00016193,"INCLINATION":70.0042,"RA_OF_ASC_NODE":333.92,"ARG_OF_PERICENTER":218.1502,"MEAN_ANOMALY":141.9542,"EPHEMERIS_TYPE":0,"CLASSIFICATION_TYPE":"U","NORAD_CAT_ID":66830,"ELEMENT_SET_NO":999,"REV_AT_EPOCH":1611,"BSTAR":0.0034462676,"MEAN_MOTION_DOT":0.00041343,"MEAN_MOTION_DDOT":0},{"OBJECT_NAME":"FENGYUN 1C DEB","OBJECT_ID":"1999-025UA","EPOCH":"2026-03-09T18:54:40.789440","MEAN_MOTION":14.60797271,"ECCENTRICITY":0.02036625,"INCLINATION":98.3228,"RA_OF_ASC_NODE":143.6795,"ARG_OF_PERICENTER":316.7608,"MEAN_ANOMALY":169.6597,"EPHEMERIS_TYPE":0,"CLASSIFICATION_TYPE":"U","NORAD_CAT_ID":30169,"ELEMENT_SET_NO":999,"REV_AT_EPOCH":98993,"BSTAR":0.0016852515,"MEAN_MOTION_DOT":0.00011,"MEAN_MOTION_DDOT":0}]
